NORAD_CAT_ID,OBJECT_NAME,OBJECT_TYPE,EPOCH,MEAN_MOTION,ECCENTRICITY,INCLINATION,RA_OF_ASC_NODE,ARG_OF_PERICENTER,MEAN_ANOMALY,BSTAR,MEAN_MOTION_DOT,MEAN_MOTION_DDOT,TLE_LINE0,TLE_LINE1,TLE_LINE2,SEMIMAJOR_AXIS,PERIOD,APOGEE,PERIGEE,DECAYED
49414.0,STARLINK-3146,PAYLOAD,2022-09-13 12:21:50,15.08836192,0.0002059,53.2159,184.6246,46.7035,313.4128,9.787e-06,-1.32e-06,0.0,0 STARLINK-3146,1 49414U 21104G   22256.51517269 -.00000132  00000-0  97870-5 0  9996,2 49414  53.2159 184.6246 0002059  46.7035 313.4128 15.08836192 47513,6917.892,95.438,541.181,538.3330000000002,0.0
49414.0,STARLINK-3146,PAYLOAD,2022-09-14 07:26:28,15.08835575,0.0002169,53.216,181.056,50.7364,309.3821,-7.107399999999999e-05,-1.419e-05,0.0,0 STARLINK-3146,1 49414U 21104G   22257.31005111 -.00001419  00000-0 -71074-4 0  9990,2 49414  53.2160 181.0560 0002169  50.7364 309.3821 15.08835575 46547,6917.894,95.438,541.259,538.258,0.0
49414.0,STARLINK-3146,PAYLOAD,2022-09-15 02:31:06,15.08845725,0.0002006999999999,53.2169,177.4879,49.871,310.2458,0.00011038,1.469e-05,0.0,0 STARLINK-3146,1 49414U 21104G   22258.10493237  .00001469  00000-0  11038-3 0  9994,2 49414  53.2169 177.4879 0002007  49.8710 310.2458 15.08845725 47752,6917.863,95.437,541.116,538.339,0.0
49414.0,STARLINK-3146,PAYLOAD,2022-09-15 12:03:24,15.088497899999998,0.0002130999999999,53.2161,175.7035,49.1593,310.9583,0.0002393,3.523e-05,0.0,0 STARLINK-3146,1 49414U 21104G   22258.50237012  .00003523  00000-0  23930-3 0  9992,2 49414  53.2161 175.7035 0002131  49.1593 310.9583 15.08849790 46727,6917.85,95.437,541.19,538.241,0.0
49414.0,STARLINK-3146,PAYLOAD,2022-09-15 18:24:57,15.08846398,0.0001996999999999,53.2158,174.5141,50.8472,309.2698,0.0002641999999999,3.92e-05,0.0,0 STARLINK-3146,1 49414U 21104G   22258.76733261  .00003920  00000-0  26420-3 0  9995,2 49414  53.2158 174.5141 0001997  50.8472 309.2698 15.08846398 46765,6917.861,95.437,541.107,538.344,0.0
49414.0,STARLINK-3146,PAYLOAD,2022-09-16 03:57:16,15.08843431,0.000192,53.2154,172.7306,47.9501,312.1655,0.00013742,1.9e-05,0.0,0 STARLINK-3146,1 49414U 21104G   22259.16477272  .00001900  00000-0  13742-3 0  9996,2 49414  53.2154 172.7306 0001920  47.9501 312.1655 15.08843431 46828,6917.87,95.437,541.063,538.4069999999998,0.0
49414.0,STARLINK-3146,PAYLOAD,2022-09-17 02:12:40,15.08835951,0.0001959,53.2157,168.5673,47.5747,312.5411,-7.9995e-05,-1.561e-05,0.0,0 STARLINK-3146,1 49414U 21104G   22260.09213778 -.00001561  00000-0 -79995-4 0  9997,2 49414  53.2157 168.5673 0001959  47.5747 312.5411 15.08835951 48050,6917.893,95.438,541.113,538.403,0.0
49414.0,STARLINK-3146,PAYLOAD,2022-09-17 05:23:27,15.08836781,0.0001949,53.2168,167.9726,49.8305,310.2858,1.1579e-05,-1.04e-06,0.0,0 STARLINK-3146,1 49414U 21104G   22260.22461893 -.00000104  00000-0  11579-4 0  9990,2 49414  53.2168 167.9726 0001949  49.8305 310.2858 15.08836781 46980,6917.89,95.438,541.104,538.4069999999998,0.0
49414.0,STARLINK-3146,PAYLOAD,2022-09-17 21:17:18,15.08833071,0.0001921,53.2165,164.9987,52.1239,307.9927,-3.9753e-05,-9.21e-06,0.0,0 STARLINK-3146,1 49414U 21104G   22260.88702273 -.00000921  00000-0 -39753-4 0  9994,2 49414  53.2165 164.9987 0001921  52.1239 307.9927 15.08833071 47087,6917.901999999999,95.438,541.095,538.438,0.0
49414.0,STARLINK-3146,PAYLOAD,2022-09-18 00:28:06,15.08816254,0.0001996999999999,53.2169,164.4039,45.6746,314.4409,-0.00020454,-3.54e-05,0.0,0 STARLINK-3146,1 49414U 21104G   22261.01951957 -.00003540  00000-0 -20454-3 0  9992,2 49414  53.2169 164.4039 0001997  45.6746 314.4409 15.08816254 48192,6917.953,95.439,541.1990000000002,538.436,0.0
49414.0,STARLINK-3146,PAYLOAD,2022-09-18 05:14:16,15.08815313,0.0001943,53.2169,163.512,47.937,312.1787,-0.00020212,-3.501e-05,0.0,0 STARLINK-3146,1 49414U 21104G   22261.21824206 -.00003501  00000-0 -20212-3 0  9999,2 49414  53.2169 163.5120 0001943  47.9370 312.1787 15.08815313 47134,6917.956,95.439,541.165,538.477,0.0
49414.0,STARLINK-3146,PAYLOAD,2022-09-18 17:57:20,15.08824533,0.0001803,53.2166,161.1331,49.4217,310.6932,2.93e-05,1.78e-06,0.0,0 STARLINK-3146,1 49414U 21104G   22261.74815489  .00000178  00000-0  29300-4 0  9993,2 49414  53.2166 161.1331 0001803  49.4217 310.6932 15.08824533 48300,6917.928000000001,95.439,541.04,538.545,0.0
49414.0,STARLINK-3146,PAYLOAD,2022-09-18 21:08:06,15.08829198,0.0001858,53.2166,160.5378,53.2357,306.8806,7.4144e-05,8.92e-06,0.0,0 STARLINK-3146,1 49414U 21104G   22261.88063188  .00000892  00000-0  74144-4 0  9998,2 49414  53.2166 160.5378 0001858  53.2357 306.8806 15.08829198 47232,6917.913000000001,95.438,541.064,538.493,0.0
49414.0,STARLINK-3146,PAYLOAD,2022-09-19 00:18:52,15.08837237,0.0001818,53.2166,159.944,50.8716,309.2438,0.00014994,2.099e-05,0.0,0 STARLINK-3146,1 49414U 21104G   22262.01310654  .00002099  00000-0  14994-3 0  9994,2 49414  53.2166 159.9440 0001818  50.8716 309.2438 15.08837237 48346,6917.889,95.438,541.012,538.496,0.0
49414.0,STARLINK-3146,PAYLOAD,2022-09-19 03:29:38,15.0884109,0.000181,53.2166,159.3493,51.1876,308.9277,0.00019008,2.738e-05,0.0,0 STARLINK-3146,1 49414U 21104G   22262.14558453  .00002738  00000-0  19008-3 0  9990,2 49414  53.2166 159.3493 0001810  51.1876 308.9277 15.08841090 47271,6917.877,95.437,540.994,538.49,0.0
49414.0,STARLINK-3146,PAYLOAD,2022-09-19 16:12:43,15.08842667,0.0001779,53.2166,156.97,51.3585,308.7566,0.0001575999999999,2.221e-05,0.0,0 STARLINK-3146,1 49414U 21104G   22262.67550555  .00002221  00000-0  15760-3 0  9991,2 49414  53.2166 156.9700 0001779  51.3585 308.7566 15.08842667 47357,6917.871999999999,95.437,540.9680000000002,538.507,0.0
49414.0,STARLINK-3146,PAYLOAD,2022-09-20 03:20:25,15.08850573,0.0001804,53.2158,154.8889,50.7046,309.4106,0.00038837,5.9e-05,0.0,0 STARLINK-3146,1 49414U 21104G   22263.13918734  .00005900  00000-0  38837-3 0  9997,2 49414  53.2158 154.8889 0001804  50.7046 309.4106 15.08850573 48519,6917.848000000001,95.437,540.961,538.465,0.0
49414.0,STARLINK-3146,PAYLOAD,2022-09-20 09:41:58,15.08849886,0.000174,53.2156,153.6992,51.1726,308.9422,0.00023404,3.44e-05,0.0,0 STARLINK-3146,1 49414U 21104G   22263.40414638  .00003440  00000-0  23404-3 0  9992,2 49414  53.2156 153.6992 0001740  51.1726 308.9422 15.08849886 47461,6917.85,95.437,540.919,538.511,0.0
49414.0,STARLINK-3146,PAYLOAD,2022-09-21 01:35:49,15.08850421,0.0001803,53.216,150.7256,51.8366,308.2788,9.6879e-05,1.254e-05,0.0,0 STARLINK-3146,1 49414U 21104G   22264.06654195  .00001254  00000-0  96879-4 0  9997,2 49414  53.2160 150.7256 0001803  51.8366 308.2788 15.08850421 48651,6917.849,95.437,540.961,538.466,0.0
49414.0,STARLINK-3146,PAYLOAD,2022-09-21 19:05:04,15.08832547,0.0001647,53.2157,147.4539,47.6122,312.5009,-0.00016407,-2.898e-05,0.0,0 STARLINK-3146,1 49414U 21104G   22264.79518867 -.00002898  00000-0 -16407-3 0  9997,2 49414  53.2157 147.4539 0001647  47.6122 312.5009 15.08832547 48768,6917.903,95.438,540.908,538.629,0.0
49414.0,STARLINK-3146,PAYLOAD,2022-09-21 20:40:27,15.08833946,0.0001745,53.2161,147.1564,46.4414,313.6723,-0.00011014,-2.04e-05,0.0,0 STARLINK-3146,1 49414U 21104G   22264.86143091 -.00002040  00000-0 -11014-3 0  9996,2 49414  53.2161 147.1564 0001745  46.4414 313.6723 15.08833946 47687,6917.899,95.438,540.971,538.557,0.0
49414.0,STARLINK-3146,PAYLOAD,2022-09-22 09:23:33,15.088362699999998,0.000171,53.2165,144.7776,49.1033,311.0107,-7.6461e-06,-4.1e-06,0.0,0 STARLINK-3146,1 49414U 21104G   22265.39135659 -.00000410  00000-0 -76461-5 0  9994,2 49414  53.2165 144.7776 0001710  49.1033 311.0107 15.08836270 47768,6917.892,95.438,540.94,538.5740000000002,0.0
49414.0,STARLINK-3146,PAYLOAD,2022-09-22 20:31:15,15.08838375,0.000164,53.2164,142.6963,47.8159,312.2972,5.142600000000001e-05,5.3e-06,0.0,0 STARLINK-3146,1 49414U 21104G   22265.85503495  .00000530  00000-0  51426-4 0  9996,2 49414  53.2164 142.6963 0001640  47.8159 312.2972 15.08838375 48928,6917.885,95.438,540.885,538.616,0.0
49414.0,STARLINK-3146,PAYLOAD,2022-09-22 22:06:38,15.08828632,0.0001561999999999,53.2165,142.3992,56.9396,303.1746,0.00021805,3.183e-05,0.0,0 STARLINK-3146,1 49414U 21104G   22265.92127529  .00003183  00000-0  21805-3 0  9998,2 49414  53.2165 142.3992 0001562  56.9396 303.1746 15.08828632 47848,6917.915,95.438,540.861,538.7,0.0
49414.0,STARLINK-3146,PAYLOAD,2022-09-23 01:17:24,15.08845096,0.0001704,53.2166,141.8041,50.213,309.9012,4.2281e-05,3.85e-06,0.0,0 STARLINK-3146,1 49414U 21104G   22266.05375140  .00000385  00000-0  42281-4 0  9990,2 49414  53.2166 141.8041 0001704  50.2130 309.9012 15.08845096 47864,6917.865,95.437,540.909,538.5509999999998,0.0
49414.0,STARLINK-3146,PAYLOAD,2022-09-23 20:22:01,15.08844044,0.0001754,53.2166,138.2361,50.2513,309.8633,0.00023724,3.4899999999999995e-05,0.0,0 STARLINK-3146,1 49414U 21104G   22266.84862803  .00003490  00000-0  23724-3 0  9994,2 49414  53.2166 138.2361 0001754  50.2513 309.8633 15.08844044 47982,6917.868,95.437,540.946,538.52,0.0
49414.0,STARLINK-3146,PAYLOAD,2022-09-23 23:32:48,15.08837949,0.0001737,53.2166,137.6416,49.3192,310.7951,0.00018234,2.615e-05,0.0,0 STARLINK-3146,1 49414U 21104G   22266.98111401  .00002615  00000-0  18234-3 0  9998,2 49414  53.2166 137.6416 0001737  49.3192 310.7951 15.08837949 49093,6917.887,95.438,540.953,538.55,0.0
49414.0,STARLINK-3146,PAYLOAD,2022-09-24 20:12:48,15.08844289,0.0001774,53.2166,133.7758,50.5232,309.5917,0.00013555,1.87e-05,0.0,0 STARLINK-3146,1 49414U 21104G   22267.84223197  .00001870  00000-0  13555-3 0  9993,2 49414  53.2166 133.7758 0001774  50.5232 309.5917 15.08844289 48136,6917.8669999999975,95.437,540.96,538.505,0.0
49414.0,STARLINK-3146,PAYLOAD,2022-09-24 23:23:35,15.08841548,0.0001792,53.2156,133.1823,39.1108,321.0014,4.6154e-05,4.47e-06,0.0,0 STARLINK-3146,1 49414U 21104G   22267.97471459  .00000447  00000-0  46154-4 0  9994,2 49414  53.2156 133.1823 0001792  39.1108 321.0014 15.08841548 48151,6917.876,95.437,540.98,538.501,0.0
